{
  "type": "FeatureCollection",
  "features": [
    {
      "type": "Feature",
      "properties": {
        "norad_id": 40894,
        "name": "GAOFEN-9 01",
        "group": "resource",
        "lat": -81.46072750338166,
        "lon": 136.90802123169235,
        "alt_km": 645.6422782874615,
        "timestamp": "2025-12-07T07:31:35.960200+00:00",
        "meta_object_name": "GAOFEN-9 01",
        "meta_object_id": "2015-047A",
        "meta_epoch": "2025-12-06T22:13:46.804224",
        "meta_mean_motion": 14.82400274,
        "meta_eccentricity": 0.00287713,
        "meta_inclination": 97.6545,
        "meta_ra_of_asc_node": 20.1328,
        "meta_arg_of_pericenter": 52.7039,
        "meta_mean_anomaly": 307.6792,
        "meta_ephemeris_type": 0,
        "meta_classification_type": "U",
        "meta_norad_cat_id": 40894,
        "meta_element_set_no": 999,
        "meta_rev_at_epoch": 55170,
        "meta_bstar": 0.00029367854,
        "meta_mean_motion_dot": 2.318e-05,
        "meta_mean_motion_ddot": 0,
        "tle_line1": "1 40894U 15047A   25340.92623616  .00002318  00000+0  29368-3 0  9995",
        "tle_line2": "2 40894  97.6545  20.1328 0028771  52.7039 307.6792 14.82400274551704"
      },
      "geometry": {
        "type": "Point",
        "coordinates": [
          136.90802123169235,
          -81.46072750338166
        ]
      }
    },
    {
      "type": "Feature",
      "properties": {
        "norad_id": 41026,
        "name": "YAOGAN-28",
        "group": "resource",
        "lat": -38.47967578965062,
        "lon": 125.09278940513892,
        "alt_km": 507.96389508389893,
        "timestamp": "2025-12-07T07:31:35.960210+00:00",
        "meta_object_name": "YAOGAN-28",
        "meta_object_id": "2015-064A",
        "meta_epoch": "2025-12-06T22:14:36.873024",
        "meta_mean_motion": 15.24206491,
        "meta_eccentricity": 0.00121036,
        "meta_inclination": 97.2809,
        "meta_ra_of_asc_node": 118.8843,
        "meta_arg_of_pericenter": 145.1524,
        "meta_mean_anomaly": 215.0509,
        "meta_ephemeris_type": 0,
        "meta_classification_type": "U",
        "meta_norad_cat_id": 41026,
        "meta_element_set_no": 999,
        "meta_rev_at_epoch": 56136,
        "meta_bstar": 0.00057432581,
        "meta_mean_motion_dot": 0.00013969,
        "meta_mean_motion_ddot": 0,
        "tle_line1": "1 41026U 15064A   25340.92681566  .00013969  00000+0  57433-3 0  9998",
        "tle_line2": "2 41026  97.2809 118.8843 0012103 145.1524 215.0509 15.24206491561369"
      },
      "geometry": {
        "type": "Point",
        "coordinates": [
          125.09278940513892,
          -38.47967578965062
        ]
      }
    },
    {
      "type": "Feature",
      "properties": {
        "norad_id": 41038,
        "name": "YAOGAN-29",
        "group": "resource",
        "lat": 34.54743363660093,
        "lon": -169.9600027893033,
        "alt_km": 618.32728602511,
        "timestamp": "2025-12-07T07:31:35.960221+00:00",
        "meta_object_name": "YAOGAN-29",
        "meta_object_id": "2015-069A",
        "meta_epoch": "2025-12-06T22:46:39.885600",
        "meta_mean_motion": 14.82872804,
        "meta_eccentricity": 4.771e-05,
        "meta_inclination": 98.0223,
        "meta_ra_of_asc_node": 4.102,
        "meta_arg_of_pericenter": 356.0053,
        "meta_mean_anomaly": 4.1156,
        "meta_ephemeris_type": 0,
        "meta_classification_type": "U",
        "meta_norad_cat_id": 41038,
        "meta_element_set_no": 999,
        "meta_rev_at_epoch": 54213,
        "meta_bstar": 0.00011616333,
        "meta_mean_motion_dot": 8.87e-06,
        "meta_mean_motion_ddot": 0,
        "tle_line1": "1 41038U 15069A   25340.94907275  .00000887  00000+0  11616-3 0  9994",
        "tle_line2": "2 41038  98.0223   4.1020 0000477 356.0053   4.1156 14.82872804542135"
      },
      "geometry": {
        "type": "Point",
        "coordinates": [
          -169.9600027893033,
          34.54743363660093
        ]
      }
    },
    {
      "type": "Feature",
      "properties": {
        "norad_id": 41167,
        "name": "KENT RIDGE 1",
        "group": "resource",
        "lat": -14.58412983809292,
        "lon": 148.0872828145941,
        "alt_km": 505.4251445752725,
        "timestamp": "2025-12-07T07:31:35.960230+00:00",
        "meta_object_name": "KENT RIDGE 1",
        "meta_object_id": "2015-077B",
        "meta_epoch": "2025-12-06T22:32:12.951456",
        "meta_mean_motion": 15.21567192,
        "meta_eccentricity": 0.00085732,
        "meta_inclination": 14.9795,
        "meta_ra_of_asc_node": 254.1844,
        "meta_arg_of_pericenter": 48.4513,
        "meta_mean_anomaly": 311.6543,
        "meta_ephemeris_type": 0,
        "meta_classification_type": "U",
        "meta_norad_cat_id": 41167,
        "meta_element_set_no": 999,
        "meta_rev_at_epoch": 55175,
        "meta_bstar": 0.0002724168,
        "meta_mean_motion_dot": 7.094e-05,
        "meta_mean_motion_ddot": 0,
        "tle_line1": "1 41167U 15077B   25340.93903879  .00007094  00000+0  27242-3 0  9990",
        "tle_line2": "2 41167  14.9795 254.1844 0008573  48.4513 311.6543 15.21567192551757"
      },
      "geometry": {
        "type": "Point",
        "coordinates": [
          148.0872828145941,
          -14.58412983809292
        ]
      }
    },
    {
      "type": "Feature",
      "properties": {
        "norad_id": 41194,
        "name": "GAOFEN-4",
        "group": "resource",
        "lat": -0.10362400318936288,
        "lon": -65.0246462178223,
        "alt_km": 35790.75455688143,
        "timestamp": "2025-12-07T07:31:35.960243+00:00",
        "meta_object_name": "GAOFEN-4",
        "meta_object_id": "2015-083A",
        "meta_epoch": "2025-12-06T22:15:38.627424",
        "meta_mean_motion": 1.00271991,
        "meta_eccentricity": 0.00036018,
        "meta_inclination": 0.155,
        "meta_ra_of_asc_node": 80.9624,
        "meta_arg_of_pericenter": 105.8495,
        "meta_mean_anomaly": 328.7631,
        "meta_ephemeris_type": 0,
        "meta_classification_type": "U",
        "meta_norad_cat_id": 41194,
        "meta_element_set_no": 999,
        "meta_rev_at_epoch": 3660,
        "meta_bstar": 0,
        "meta_mean_motion_dot": -3.29e-06,
        "meta_mean_motion_ddot": 0,
        "tle_line1": "1 41194U 15083A   25340.92753041 -.00000329  00000+0  00000+0 0  9994",
        "tle_line2": "2 41194   0.1550  80.9624 0003601 105.8495 328.7631  1.00271991 36608"
      },
      "geometry": {
        "type": "Point",
        "coordinates": [
          -65.0246462178223,
          -0.10362400318936288
        ]
      }
    },
    {
      "type": "Feature",
      "properties": {
        "norad_id": 41240,
        "name": "JASON-3",
        "group": "resource",
        "lat": 1.241298085552295,
        "lon": 169.78452769862858,
        "alt_km": 1312.8223214165955,
        "timestamp": "2025-12-07T07:31:35.960254+00:00",
        "meta_object_name": "JASON-3",
        "meta_object_id": "2016-002A",
        "meta_epoch": "2025-12-06T22:11:57.219648",
        "meta_mean_motion": 12.87626206,
        "meta_eccentricity": 0.00071287,
        "meta_inclination": 66.0391,
        "meta_ra_of_asc_node": 170.0494,
        "meta_arg_of_pericenter": 270.4462,
        "meta_mean_anomaly": 89.574,
        "meta_ephemeris_type": 0,
        "meta_classification_type": "U",
        "meta_norad_cat_id": 41240,
        "meta_element_set_no": 999,
        "meta_rev_at_epoch": 46249,
        "meta_bstar": 2.7947497e-05,
        "meta_mean_motion_dot": -5.5e-07,
        "meta_mean_motion_ddot": 0,
        "tle_line1": "1 41240U 16002A   25340.92496782 -.00000055  00000+0  27947-4 0  9994",
        "tle_line2": "2 41240  66.0391 170.0494 0007128 270.4462  89.5740 12.87626206462494"
      },
      "geometry": {
        "type": "Point",
        "coordinates": [
          169.78452769862858,
          1.241298085552295
        ]
      }
    },
    {
      "type": "Feature",
      "properties": {
        "norad_id": 41335,
        "name": "SENTINEL-3A",
        "group": "resource",
        "lat": -38.55577664688215,
        "lon": -140.54309335692616,
        "alt_km": 809.4648753506526,
        "timestamp": "2025-12-07T07:31:35.960263+00:00",
        "meta_object_name": "SENTINEL-3A",
        "meta_object_id": "2016-011A",
        "meta_epoch": "2025-12-06T22:05:16.594080",
        "meta_mean_motion": 14.26743197,
        "meta_eccentricity": 9.728e-05,
        "meta_inclination": 98.6214,
        "meta_ra_of_asc_node": 46.0148,
        "meta_arg_of_pericenter": 92.4623,
        "meta_mean_anomaly": 267.6669,
        "meta_ephemeris_type": 0,
        "meta_classification_type": "U",
        "meta_norad_cat_id": 41335,
        "meta_element_set_no": 999,
        "meta_rev_at_epoch": 51064,
        "meta_bstar": 0.0001381318,
        "meta_mean_motion_dot": 2.91e-06,
        "meta_mean_motion_ddot": 0,
        "tle_line1": "1 41335U 16011A   25340.92033095  .00000291  00000+0  13813-3 0  9990",
        "tle_line2": "2 41335  98.6214  46.0148 0000972  92.4623 267.6669 14.26743197510647"
      },
      "geometry": {
        "type": "Point",
        "coordinates": [
          -140.54309335692616,
          -38.55577664688215
        ]
      }
    }
  ]
}